BRO-8                   
1 55011U 23001C   26095.85691277  .00038831  00000+0  82123-3 0  9996
2 55011  97.3279 160.2060 0006153  38.5524 321.6164 15.45028343181028
CONNECTA T1.2           
1 55012U 23001D   26095.72220016  .00047477  00000+0  94876-3 0  9996
2 55012  97.3327 165.3649 0005964  12.1520 347.9873 15.46647174181337
BIRKELAND               
1 55015U 23001G   26095.86468542  .00011734  00000+0  30776-3 0  9998
2 55015  97.3393 163.7012 0006854  21.0370 339.1156 15.38793221181221
ION SCV-008             
1 55051U 23001AU  26095.81477828  .00009821  00000+0  36477-3 0  9998
2 55051  97.5670 190.9905 0013733 267.1237  92.8430 15.27684909180286
ION SCV-007             
1 55060U 23001BD  26095.73523820  .00000744  00000+0  11140-3 0  9998
2 55060  97.9068 160.1690 0011771 204.1064 155.9597 14.77487394175552
HUYGENS                 
1 55093U 23001CN  26095.86473721  .00015510  00000+0  40548-3 0  9993
2 55093  97.3301 163.0231 0009026 354.6860   5.4288 15.38806427181249
SHARJAHSAT-1            
1 55104U 23001CZ  26095.83103022  .00024687  00000+0  49732-3 0  9996
2 55104  97.3228 163.7173 0005854  21.3361 338.8131 15.46547285181301
HORUS 1                 
1 55690U 23025A   26095.83553745  .00008757  00000+0  36923-3 0  9991
2 55690  97.3490 171.9355 0002575 112.9046 247.2463 15.23542110173038
HORUS 2                 
1 55844U 23032A   26092.58534300  .00011579  00000+0  48651-3 0  9992
2 55844  97.3570 169.4901 0001891  93.1718 266.9735 15.23587317169979
GLOBAL-19               
1 55982U 23041B   26095.83523749  .00020010  00000+0  50677-3 0  9992
2 55982  42.0018 263.9645 0003331 266.5736  93.4723 15.39304561170784
BRO-9                   
1 56185U 23054H   26095.81929002  .00154969  00000+0  12158-2 0  9994
2 56185  97.3030   9.7967 0001069 147.8136 212.3192 15.71074236167643
ION SCV-010             
1 56192U 23054Q   26095.69567626  .00007043  00000+0  27955-3 0  9990
2 56192  97.3865 346.1193 0014837  99.5709 260.7206 15.25556871165147
GHOST-1                 
1 56195U 23054T   26095.75675986  .00302367  37632-4  79536-3 0  9994
2 56195  97.2987  14.6665 0003238 145.7266 214.4219 15.94793060167949
TELEOS-2                
1 56310U 23057C   26093.17336608  .00000854  00000+0  14266-4 0  9995
2 56310   9.9901  30.3672 0001038 254.9175 105.0924 14.96393483161549
SNIPE 4                 
1 56744U 23072B   26095.80729347  .00026702  00000+0  67876-3 0  9995
2 56744  97.5325 299.6431 0005236 214.4104 145.6803 15.39586421158965
SNIPE 2                 
1 56745U 23072C   26095.84873245  .00034116  00000+0  76391-3 0  9997
2 56745  97.5326 302.2678 0003976 248.3813 111.7011 15.43375041159070
2023-072G               
1 56749U 23072G   26095.81986197  .00035797  00000+0  71492-3 0  9992
2 56749  97.4986 300.9814 0003366 231.8522 128.2424 15.46739805159266
OTTER PUP               
1 56933U 23084B   26095.38947337  .00341462  48306-4  86582-3 0  9996
2 56933  97.5728 254.2651 0003239 238.1404 121.9556 15.95478564157736
GEISAT PRECURSOR        
1 56934U 23084C   26095.81818215  .00010574  00000+0  32794-3 0  9994
2 56934  97.6111 234.4957 0005090 228.1565 131.9243 15.33592203156436
BLACKJACK ACES-3        
1 56950U 23084U   26095.80770147  .00008000  00000+0  39530-3 0  9998
2 56950  97.6093 230.5130 0001964 228.5142 131.5923 15.18124626156180
BLACKJACK ACES-2        
1 56955U 23084Z   26095.87932558  .00009526  00000+0  46968-3 0  9993
2 56955  97.6091 230.6729 0002146 161.4433 198.6879 15.18144897156208
BLACKJACK ACES-1        
1 56956U 23084AA  26095.86834556  .00010024  00000+0  49385-3 0  9993
2 56956  97.6081 230.4429 0002019 143.7077 216.4294 15.18158437105927
ION SCV-011             
1 56957U 23084AB  26095.52990749  .00007323  00000+0  27013-3 0  9996
2 56957  98.1374 276.1176 0006129 293.8938  66.1657 15.28120471154716
GHOST-3                 
1 56958U 23084AC  26095.83164774  .00023134  00000+0  48397-3 0  9998
2 56958  97.6117 240.7033 0006959 191.4431 168.6661 15.45451506156830
TOMORROW-R2             
1 56962U 23084AG  26095.38602787  .00147163  00000+0  84756-3 0  9992
2 56962  97.5913 251.1243 0004379 173.6881 186.4441 15.78270777157494
AFR-1                   
1 56964U 23084AJ  26095.88001833  .00007080  00000+0  26248-3 0  9999
2 56964  97.6156 230.9160 0009583 228.2535 131.7885 15.27902728156186
METEOR-M2 3             
1 57166U 23091A   26095.86870251  .00000028  00000+0  31005-4 0  9991
2 57166  98.6162 152.3021 0004433  36.0425 324.1052 14.24040719144229
UMKA 1 (RS40S)          
1 57172U 23091G   26095.82997185  .00008135  00000+0  37968-3 0  9990
2 57172  97.5117 154.8240 0013200  19.4867 340.6870 15.20026415153013
2023-091H               
1 57173U 23091H   26095.81265641  .00013345  00000+0  50308-3 0  9997
2 57173  97.5109 158.4815 0010120  18.3090 341.8511 15.27144681153251
2023-091J               
1 57174U 23091J   26095.86833903  .00004537  00000+0  25681-3 0  9994
2 57174  97.5129 149.9931 0014383  43.7389 316.4979 15.13454927152691
CUBEBEL 2 (EU11S)       
1 57175U 23091K   26095.83456596  .00015536  00000+0  57869-3 0  9995
2 57175  97.5112 158.4761 0010186  20.0458 340.1179 15.27506543153258
SITRO-AIS 5 (KATYS)     
1 57176U 23091L   26095.86700012  .00014984  00000+0  55185-3 0  9999
2 57176  97.5120 159.1470 0011383   5.7797 354.3572 15.27877584153293
ZORKIY-2M 1             
1 57177U 23091M   26095.81770462  .00008647  00000+0  40352-3 0  9990
2 57177  97.5158 155.0378 0013650  16.2870 343.8801 15.20003784153008
CUBESX-HSE 3 (RS42S)    
1 57178U 23091N   26095.85375367  .00016293  00000+0  57130-3 0  9998
2 57178  97.5148 160.6061 0010521 356.5062   3.6103 15.29479291153360
MONITOR-3 (RS58S)       
1 57180U 23091Q   26095.85845171  .00013303  00000+0  51179-3 0  9992
2 57180  97.5143 158.8305 0011627   2.2688 357.8600 15.26456761153253
MONITOR-4 (RS57S)       
1 57182U 23091S   26095.64535739  .00013730  00000+0  52671-3 0  9999
2 57182  97.5137 158.5827 0011583   3.6688 356.4633 15.26544652153225
MONITOR-2 (RS39S)       
1 57184U 23091U   26095.82999283  .00006665  00000+0  32811-3 0  9992
2 57184  97.5140 154.5900 0011438  12.9997 347.1529 15.18264403152970
SVYATOBOR 1 (RS60S)     
1 57187U 23091X   26095.86321146  .00011310  00000+0  44956-3 0  9992
2 57187  97.5149 159.3250 0009089 356.3379   3.7791 15.25431754153285
HORS 1                  
1 57188U 23091Y   26095.85317770  .00011491  00000+0  45566-3 0  9998
2 57188  97.5128 159.0878 0008624 356.8263   3.2918 15.25512384153282
VIZARD-METEO (RS38S)    
1 57189U 23091Z   26095.84721861  .00020158  00000+0  61716-3 0  9993
2 57189  97.5139 163.9920 0006434 337.8197  22.2766 15.33836299153598
NANOZOND 1 (RS49S)      
1 57190U 23091AA  26095.75220645  .00623626  16089-3  17422-2 0  9990
2 57190  97.4948 178.4793 0007396 261.2444  98.7993 15.93621227154555
SITRO-AIS 6 (CHIRKIN)   
1 57192U 23091AC  26095.82001781  .00007803  00000+0  31631-3 0  9992
2 57192  97.5127 158.5795 0012199   9.5320 350.6146 15.24855377153256
SITRO-AIS 8 (ANOKHIN)   
1 57193U 23091AD  26095.80760487  .00016977  00000+0  58068-3 0  9991
2 57193  97.5114 160.3989 0010435   2.9724 357.1576 15.30278861153371
SITRO-AIS 7 (FARTUSHNIY)
1 57194U 23091AE  26095.80924220  .00008267  00000+0  33768-3 0  9992
2 57194  97.5125 158.4286 0012106  10.5149 349.6340 15.24581098153248
AVION KALUGA 650        
1 57195U 23091AF  26095.81166435  .00006816  00000+0  32281-3 0  9997
2 57195  97.5155 155.6971 0010530  12.0933 348.0552 15.19612364153039
HORS 2                  
1 57196U 23091AG  26095.81031574  .00015833  00000+0  54456-3 0  9990
2 57196  97.5143 161.9348 0007594 349.7711  10.3374 15.30139150153452
A-SEANSAT-PG1           
1 57197U 23091AH  26095.81487405  .00021819  00000+0  65225-3 0  9996
2 57197  97.5131 163.9728 0006676 346.2484  13.8576 15.34575410153609
SITRO-AIS 10 (BURDAEV)  
1 57199U 23091AK  26095.86510098  .00023559  00000+0  67252-3 0  9993
2 57199  97.5129 164.8123 0005910 340.8330  19.2690 15.36016384153651
SITRO-AIS 9 (SHCHUKIN)  
1 57201U 23091AM  26095.80508505  .00023908  00000+0  69162-3 0  9991
2 57201  97.5128 164.5338 0006120 341.1841  18.9175 15.35593888153634
UTMN 2 (RS27S)          
1 57203U 23091AP  26095.84653010  .00015895  00000+0  54317-3 0  9991
2 57203  97.5141 162.1436 0007405 345.1189  14.9832 15.30349915153473
SITRO-AIS 12 (SMIRENNIY)
1 57204U 23091AQ  26095.80893323  .00023230  00000+0  66652-3 0  9998
2 57204  97.5140 164.9612 0005671 334.7378  25.3587 15.35860772153653
SITRO-AIS 11 (SHEFFER)  
1 57208U 23091AU  26095.84095420  .00023118  00000+0  65543-3 0  9991
2 57208  97.5137 165.1982 0005560 333.7030  26.3931 15.36235397153673
H2SAT (HEINRICH HERTZ)  
1 57213U 23093A   26095.67378308  .00000000  00000+0  00000+0 0  9997
2 57213   0.0122 203.4607 0001136 252.6966 341.0720  1.00271861 10187
KUZGTU 1 (RS47S)        
1 57217U 23091AV  26095.85023034  .00014985  00000+0  54522-3 0  9991
2 57217  97.5123 159.6628 0010797   0.0589   0.0650 15.28282804153329
QIANKUN-1               
1 57422U 23103B   26095.40721807  .00061543  16532-5  65081-4 0  9995
2 57422  96.1818 145.2037 0049217 140.0168 220.4758 16.07705487155600
FENGYUN 3F              
1 57490U 23111A   26095.81742978  .00000124  00000+0  78639-4 0  9994
2 57490  98.6876 167.1613 0000795  87.9898 272.1369 14.19926379138593
METEOR 2-1 DEB          
1 57492U 75064F   26084.41871874  .00004836  00000+0  19210-2 0  9994
2 57492  81.2720  83.0815 0006418 351.0625   9.0440 14.28613992391022
HJ-2F                   
1 57519U 23116A   26095.85763006  .00010230  00000+0  45952-3 0  9990
2 57519  97.3873 102.3863 0006906 302.4059  57.6508 15.21325620147755
XRISM                   
1 57800U 23137A   26095.31685059  .00006438  00000+0  36174-3 0  9999
2 57800  31.0012 111.3941 0007823 306.0924  53.8990 15.11831629141820
